NORAD_CAT_ID,OBJECT_NAME,OBJECT_TYPE,EPOCH,MEAN_MOTION,ECCENTRICITY,INCLINATION,RA_OF_ASC_NODE,ARG_OF_PERICENTER,MEAN_ANOMALY,BSTAR,MEAN_MOTION_DOT,MEAN_MOTION_DDOT,TLE_LINE0,TLE_LINE1,TLE_LINE2,SEMIMAJOR_AXIS,PERIOD,APOGEE,PERIGEE,DECAYED
49724.0,STARLINK-3219,PAYLOAD,2023-04-28 04:06:37,15.08866065,0.0001484,53.2156,167.1238,94.9278,265.1884,0.00042182,6.436e-05,0.0,0 STARLINK-3219,1 49724U 21115A   23118.17127224  .00006436  00000-0  42182-3 0  9996,2 49724  53.2156 167.1238 0001484  94.9278 265.1884 15.08866065 78659,6917.801,95.436,540.692,538.639,0.0
49724.0,STARLINK-3219,PAYLOAD,2023-04-28 10:28:10,15.08849843,0.0001087,53.2149,165.934,117.1979,242.9124,-0.0001474,-2.634e-05,0.0,0 STARLINK-3219,1 49724U 21115A   23118.43623074 -.00002634  00000-0 -14740-3 0  9996,2 49724  53.2149 165.9340 0001087 117.1979 242.9124 15.08849843 78695,6917.85,95.437,540.467,538.963,0.0
49724.0,STARLINK-3219,PAYLOAD,2023-04-29 11:54:20,15.08846231,0.0001069,53.2149,161.1779,83.3797,276.7316,0.0005711,8.814e-05,0.0,0 STARLINK-3219,1 49724U 21115A   23119.49607419  .00008814  00000-0  57110-3 0  9990,2 49724  53.2149 161.1779 0001069  83.3797 276.7316 15.08846231 77742,6917.861,95.437,540.466,538.987,0.0
49724.0,STARLINK-3219,PAYLOAD,2023-04-29 15:05:06,15.0885101,0.0001042,53.2147,160.5825,81.2554,278.8556,0.00073984,0.0001151,0.0,0 STARLINK-3219,1 49724U 21115A   23119.62855305  .00011510  00000-0  73984-3 0  9998,2 49724  53.2147 160.5825 0001042  81.2554 278.8556 15.08851010 78879,6917.847,95.437,540.433,538.991,0.0
49724.0,STARLINK-3219,PAYLOAD,2023-04-30 10:09:44,15.08845167,0.0001148,53.2149,157.0145,80.4075,279.7047,0.00027353,4.069e-05,0.0,0 STARLINK-3219,1 49724U 21115A   23120.42343415  .00004069  00000-0  27353-3 0  9992,2 49724  53.2149 157.0145 0001148  80.4075 279.7047 15.08845167 78997,6917.865,95.437,540.524,538.935,0.0
49724.0,STARLINK-3219,PAYLOAD,2023-05-01 11:35:55,15.08840276,0.0001188,53.2143,152.2547,97.4681,262.6446,7.6058e-05,9.23e-06,0.0,0 STARLINK-3219,1 49724U 21115A   23121.48327567  .00000923  00000-0  76058-4 0  9991,2 49724  53.2143 152.2547 0001188  97.4681 262.6446 15.08840276 78045,6917.88,95.438,540.566,538.923,0.0
49724.0,STARLINK-3219,PAYLOAD,2023-05-01 13:11:18,15.08841505,0.0001205,53.2144,151.9577,91.8783,268.2347,0.00010359,1.361e-05,0.0,0 STARLINK-3219,1 49724U 21115A   23121.54951552  .00001361  00000-0  10359-3 0  9993,2 49724  53.2144 151.9577 0001205  91.8783 268.2347 15.08841505 79168,6917.876,95.437,540.574,538.907,0.0
49724.0,STARLINK-3219,PAYLOAD,2023-05-02 11:26:41,15.08849993,0.000115,53.2153,147.7944,90.8567,269.2557,0.00018226,2.615e-05,0.0,0 STARLINK-3219,1 49724U 21115A   23122.47687045  .00002615  00000-0  18226-3 0  9993,2 49724  53.2153 147.7944 0001150  90.8567 269.2557 15.08849993 78192,6917.85,95.437,540.51,538.919,0.0
49724.0,STARLINK-3219,PAYLOAD,2023-05-03 04:55:56,15.08837142,0.0001193,53.2149,144.5241,87.0403,273.0726,2.8294e-05,1.62e-06,0.0,0 STARLINK-3219,1 49724U 21115A   23123.20551690  .00000162  00000-0  28294-4 0  9993,2 49724  53.2149 144.5241 0001193  87.0403 273.0726 15.08837142 79416,6917.889,95.438,540.579,538.929,0.0
49724.0,STARLINK-3219,PAYLOAD,2023-05-03 12:52:52,15.08839468,0.000108,53.2155,143.0368,91.2048,268.9068,5.7808e-05,6.32e-06,0.0,0 STARLINK-3219,1 49724U 21115A   23123.53671609  .00000632  00000-0  57808-4 0  9997,2 49724  53.2155 143.0368 0001080  91.2048 268.9068 15.08839468 78351,6917.882,95.438,540.494,539.0,0.0
49724.0,STARLINK-3219,PAYLOAD,2023-05-04 11:08:15,15.08843492,0.0001148,53.2162,138.8742,91.0486,269.0638,2.0072e-05,3.2e-07,0.0,0 STARLINK-3219,1 49724U 21115A   23124.46407383  .00000032  00000-0  20072-4 0  9993,2 49724  53.2162 138.8742 0001148  91.0486 269.0638 15.08843492 79602,6917.87,95.437,540.529,538.941,0.0
49724.0,STARLINK-3219,PAYLOAD,2023-05-05 06:12:54,15.08835759,0.0001119,53.2161,135.3061,90.0707,270.0413,5.5929e-05,6.02e-06,0.0,0 STARLINK-3219,1 49724U 21115A   23125.25895936  .00000602  00000-0  55929-4 0  9998,2 49724  53.2161 135.3061 0001119  90.0707 270.0413 15.08835759 79723,6917.893,95.438,540.532,538.984,0.0
49724.0,STARLINK-3219,PAYLOAD,2023-05-05 17:20:36,15.08835603,0.0001125,53.216,133.2246,89.1695,270.9426,4.3176e-05,3.99e-06,0.0,0 STARLINK-3219,1 49724U 21115A   23125.72264101  .00000399  00000-0  43176-4 0  9998,2 49724  53.2160 133.2246 0001125  89.1695 270.9426 15.08835603 78681,6917.894,95.438,540.537,538.981,0.0
49724.0,STARLINK-3219,PAYLOAD,2023-05-06 09:14:27,15.08836553,0.0001114,53.216,130.2507,86.7713,273.3407,2.6979e-05,1.42e-06,0.0,0 STARLINK-3219,1 49724U 21115A   23126.38504417  .00000142  00000-0  26979-4 0  9996,2 49724  53.2160 130.2507 0001114  86.7713 273.3407 15.08836553 78782,6917.891,95.438,540.527,538.985,0.0
49724.0,STARLINK-3219,PAYLOAD,2023-05-06 17:11:23,15.08840246,0.00011,53.2161,128.7638,86.767,273.3448,6.4419e-05,7.38e-06,0.0,0 STARLINK-3219,1 49724U 21115A   23126.71624157  .00000738  00000-0  64419-4 0  9999,2 49724  53.2161 128.7638 0001100  86.7670 273.3448 15.08840246 79945,6917.88,95.438,540.506,538.984,0.0
49724.0,STARLINK-3219,PAYLOAD,2023-05-07 07:29:51,15.08845727,0.0001074,53.2159,126.0873,87.5722,272.5393,0.00011698,1.575e-05,0.0,0 STARLINK-3219,1 49724U 21115A   23127.31239680  .00001575  00000-0  11698-3 0  9999,2 49724  53.2159 126.0873 0001074  87.5722 272.5393 15.08845727 78927,6917.863,95.437,540.471,538.985,0.0
49724.0,STARLINK-3219,PAYLOAD,2023-05-07 17:02:10,15.08842092,0.0001075,53.2159,124.3029,85.9087,274.2028,8.6906e-05,1.096e-05,0.0,0 STARLINK-3219,1 49724U 21115A   23127.70983962  .00001096  00000-0  86906-4 0  9994,2 49724  53.2159 124.3029 0001075  85.9087 274.2028 15.08842092 78980,6917.874,95.437,540.483,538.995,0.0
49724.0,STARLINK-3219,PAYLOAD,2023-05-08 05:45:15,15.08832397,0.0001078,53.2158,121.9236,87.7549,272.3566,5.602e-05,6.04e-06,0.0,0 STARLINK-3219,1 49724U 21115A   23128.23976829  .00000604  00000-0  56020-4 0  9995,2 49724  53.2158 121.9236 0001078  87.7549 272.3566 15.08832397 80175,6917.904,95.438,540.514,539.023,0.0
49724.0,STARLINK-3219,PAYLOAD,2023-05-08 16:52:57,15.0883917,0.0001189,53.2163,119.8421,86.2259,273.8869,6.5321e-05,7.52e-06,0.0,0 STARLINK-3219,1 49724U 21115A   23128.70344469  .00000752  00000-0  65321-4 0  9994,2 49724  53.2163 119.8421 0001189  86.2259 273.8869 15.08839170 79130,6917.883,95.438,540.57,538.925,0.0
49724.0,STARLINK-3219,PAYLOAD,2023-05-09 05:36:02,15.08845356,0.0001224,53.2159,117.4632,86.2254,273.8878,4.3064e-05,3.98e-06,0.0,0 STARLINK-3219,1 49724U 21115A   23129.23336070  .00000398  00000-0  43064-4 0  9998,2 49724  53.2159 117.4632 0001224  86.2254 273.8878 15.08845356 79210,6917.864,95.437,540.576,538.882,0.0
49724.0,STARLINK-3219,PAYLOAD,2023-05-10 05:26:49,15.08842328,0.0001238,53.216,113.0014,92.5456,267.5678,0.0001277,1.745e-05,0.0,0 STARLINK-3219,1 49724U 21115A   23130.22696027  .00001745  00000-0  12770-3 0  9996,2 49724  53.2160 113.0014 0001238  92.5456 267.5678 15.08842328 79367,6917.873,95.437,540.595,538.882,0.0
49724.0,STARLINK-3219,PAYLOAD,2023-05-11 05:17:36,15.08840491,0.0001307,53.2161,108.5402,95.9604,264.1537,3.2955e-05,2.37e-06,0.0,0 STARLINK-3219,1 49724U 21115A   23131.22056483  .00000237  00000-0  32955-4 0  9996,2 49724  53.2161 108.5402 0001307  95.9604 264.1537 15.08840491 80624,6917.879,95.438,540.648,538.84,0.0
49724.0,STARLINK-3219,PAYLOAD,2023-05-12 05:08:24,15.08838077,0.000125,53.2163,104.0793,96.1401,263.9733,2.9201e-05,1.77e-06,0.0,0 STARLINK-3219,1 49724U 21115A   23132.21416790  .00000177  00000-0  29201-4 0  9990,2 49724  53.2163 104.0793 0001250  96.1401 263.9733 15.08838077 79669,6917.886,95.438,540.616,538.887,0.0
49724.0,STARLINK-3219,PAYLOAD,2023-05-13 04:59:11,15.08837202,0.000124,53.2171,99.6245,111.6745,248.4379,5.4883e-05,5.86e-06,0.0,0 STARLINK-3219,1 49724U 21115A   23133.20777096  .00000586  00000-0  54883-4 0  9997,2 49724  53.2171  99.6245 0001240 111.6745 248.4379 15.08837202 80926,6917.889,95.438,540.612,538.896,0.0
49724.0,STARLINK-3219,PAYLOAD,2023-05-14 04:49:58,15.08835166,0.0001267,53.217,95.1641,116.5363,243.5759,3.2982e-05,2.37e-06,0.0,0 STARLINK-3219,1 49724U 21115A   23134.20137597  .00000237  00000-0  32982-4 0  9993,2 49724  53.2170  95.1641 0001267 116.5363 243.5759 15.08835166 79962,6917.895,95.438,540.637,538.884,0.0
49724.0,STARLINK-3219,PAYLOAD,2023-05-14 20:43:49,15.08816206,0.0001125,53.2165,92.1872,91.9821,268.13,0.00039271,5.964e-05,0.0,0 STARLINK-3219,1 49724U 21115A   23134.86377281  .00005964  00000-0  39271-3 0  9990,2 49724  53.2165  92.1872 0001125  91.9821 268.1300 15.08816206 80069,6917.953,95.439,540.596,539.04,0.0
49724.0,STARLINK-3219,PAYLOAD,2023-05-14 22:19:13,15.08844213,9.58e-05,53.2166,91.8897,82.9166,277.1935,4.0205e-05,3.52e-06,0.0,0 STARLINK-3219,1 49724U 21115A   23134.93001210  .00000352  00000-0  40205-4 0  9990,2 49724  53.2166  91.8897 0000958  82.9166 277.1935 15.08844213 81185,6917.868,95.437,540.395,539.07,0.0
49724.0,STARLINK-3219,PAYLOAD,2023-05-15 04:40:45,15.08818367,0.0001282,53.2171,90.7011,96.0048,264.109,0.00054496,8.391e-05,0.0,0 STARLINK-3219,1 49724U 21115A   23135.19497257  .00008391  00000-0  54496-3 0  9996,2 49724  53.2171  90.7011 0001282  96.0048 264.1090 15.08818367 80114,6917.947,95.439,540.698,538.925,0.0
49724.0,STARLINK-3219,PAYLOAD,2023-05-15 14:13:04,15.0883867,0.0001142,53.217,88.9173,77.0195,283.0924,8.9382e-05,1.135e-05,0.0,0 STARLINK-3219,1 49724U 21115A   23135.59241374  .00001135  00000-0  89382-4 0  9999,2 49724  53.2170  88.9173 0001142  77.0195 283.0924 15.08838670 80179,6917.884,95.438,540.539,538.959,0.0
49724.0,STARLINK-3219,PAYLOAD,2023-05-16 02:56:10,15.08833816,0.0001272,53.217,86.5374,77.8406,282.2729,2.3948e-05,9.3e-07,0.0,0 STARLINK-3219,1 49724U 21115A   23136.12234045  .00000093  00000-0  23948-4 0  9994,2 49724  53.2170  86.5374 0001272  77.8406 282.2729 15.08833816 81366,6917.899,95.438,540.644,538.884,0.0
